0 ARIANE 2 DEB
1 27029U 89006J   13277.34973093 -.00000127  00000-0  21259-3 0  4775
2 27029 008.3850 122.4003 7141850 056.0044 265.5227 02.27352363101748
0 ARIANE 2 DEB
1 27029U 89006J   13280.45742309 -.00000121  00000-0  17493-3 0  4785
2 27029 008.3848 121.1706 7141781 058.3775 289.0432 02.27352745101811
0 ARIANE 2 DEB
1 27029U 89006J   13282.34058301 -.00000095  00000-0  98754-3 0  4797
2 27029 008.3846 120.4227 7141627 059.8157 030.3441 02.27353909101863
0 ARIANE 2 DEB
1 27029U 89006J   13287.99009047  .00000077  00000-0  39544-2 0  4808
2 27029 008.3852 118.2009 7141340 064.1012 334.2752 02.27356359101991
0 ARIANE 2 DEB
1 27029U 89006J   13290.44506142  .00000076  00000-0  32679-2 0  4812
2 27029 008.3845 117.2236 7141003 065.9809 183.6077 02.27359962102049
